$$SOE
2460728.500000000, A.D. 2025-Feb-22 00:00:00.0000, -3.143484805501718E+08, 4.258060089021771E+08, 8.237243965773267E+07,
2460735.500000000, A.D. 2025-Mar-01 00:00:00.0000, -3.222538756246784E+08, 4.211585536538667E+08, 8.315701588979936E+07,
2460742.500000000, A.D. 2025-Mar-08 00:00:00.0000, -3.300580093483391E+08, 4.163789209430537E+08, 8.391546671470904E+07,
2460749.500000000, A.D. 2025-Mar-15 00:00:00.0000, -3.377590818647060E+08, 4.114694344261770E+08, 8.464771976260123E+07,
2460756.500000000, A.D. 2025-Mar-22 00:00:00.0000, -3.453553435796358E+08, 4.064324247292240E+08, 8.535371061554253E+07,
2460763.500000000, A.D. 2025-Mar-29 00:00:00.0000, -3.528450951387634E+08, 4.012702268588687E+08, 8.603338254706307E+07,
2460770.500000000, A.D. 2025-Apr-05 00:00:00.0000, -3.602266857191560E+08, 3.959851785401017E+08, 8.668668618428940E+07,
2460777.500000000, A.D. 2025-Apr-12 00:00:00.0000, -3.674985115626575E+08, 3.905796195839909E+08, 8.731357927775247E+07,
2460784.500000000, A.D. 2025-Apr-19 00:00:00.0000, -3.746590149385449E+08, 3.850558914036499E+08, 8.791402652373040E+07,
2460791.500000000, A.D. 2025-Apr-26 00:00:00.0000, -3.817066832640125E+08, 3.794163364740653E+08, 8.848799939720599E+07,
2460798.500000000, A.D. 2025-May-03 00:00:00.0000, -3.886400482692197E+08, 3.736632977535087E+08, 8.903547598621613E+07,
2460805.500000000, A.D. 2025-May-10 00:00:00.0000, -3.954576851788321E+08, 3.677991180738472E+08, 8.955644082539476E+07,
2460812.500000000, A.D. 2025-May-17 00:00:00.0000, -4.021582118738621E+08, 3.618261394574547E+08, 9.005088472177020E+07,
2460819.500000000, A.D. 2025-May-24 00:00:00.0000, -4.087402878603531E+08, 3.557467023050212E+08, 9.051880455224526E+07,
2460826.500000000, A.D. 2025-May-31 00:00:00.0000, -4.152026126275543E+08, 3.495631447639530E+08, 9.096020301971622E+07,
2460833.500000000, A.D. 2025-Jun-07 00:00:00.0000, -4.215439237971831E+08, 3.432778034808983E+08, 9.137508850300086E+07,
2460840.500000000, A.D. 2025-Jun-14 00:00:00.0000, -4.277629974293630E+08, 3.368930150708815E+08, 9.176347516305713E+07,
2460847.500000000, A.D. 2025-Jun-21 00:00:00.0000, -4.338586492685754E+08, 3.304111150314025E+08, 9.212538292658442E+07,
2460854.500000000, A.D. 2025-Jun-28 00:00:00.0000, -4.398297338005559E+08, 3.238344358645318E+08, 9.246083720401403E+07,
2460861.500000000, A.D. 2025-Jul-05 00:00:00.0000, -4.456751426374027E+08, 3.171653065616519E+08, 9.276986865715106E+07,
2460868.500000000, A.D. 2025-Jul-12 00:00:00.0000, -4.513938034229410E+08, 3.104060526449422E+08, 9.305251306006563E+07,
2460875.500000000, A.D. 2025-Jul-19 00:00:00.0000, -4.569846790690113E+08, 3.035589961900788E+08, 9.330881118892656E+07,
2460882.500000000, A.D. 2025-Jul-26 00:00:00.0000, -4.624467671127025E+08, 2.966264557727460E+08, 9.353880871689942E+07,
2460889.500000000, A.D. 2025-Aug-02 00:00:00.0000, -4.677790991291752E+08, 2.896107463596956E+08, 9.374255610989851E+07,
2460896.500000000, A.D. 2025-Aug-09 00:00:00.0000, -4.729807401767483E+08, 2.825141791289271E+08, 9.392010851991937E+07,
2460903.500000000, A.D. 2025-Aug-16 00:00:00.0000, -4.780507881973922E+08, 2.753390611550692E+08, 9.407152566383471E+07,
2460910.500000000, A.D. 2025-Aug-23 00:00:00.0000, -4.829883730800338E+08, 2.680876949757750E+08, 9.419687166229746E+07,
2460917.500000000, A.D. 2025-Aug-30 00:00:00.0000, -4.877926550577670E+08, 2.607623787523819E+08, 9.429621486708292E+07,
2460924.500000000, A.D. 2025-Sep-06 00:00:00.0000, -4.924628238575099E+08, 2.533654080242909E+08, 9.436962788892280E+07,
2460931.500000000, A.D. 2025-Sep-13 00:00:00.0000, -4.969981002737222E+08, 2.458990765739853E+08, 9.441718777656595E+07,
2460938.500000000, A.D. 2025-Sep-20 00:00:00.0000, -5.013977368927528E+08, 2.383656747583858E+08, 9.443897591272001E+07,
2460945.500000000, A.D. 2025-Sep-27 00:00:00.0000, -5.056610169082962E+08, 2.307674884171812E+08, 9.443507778402074E+07,
2460952.500000000, A.D. 2025-Oct-04 00:00:00.0000, -5.097872530448602E+08, 2.231067988963999E+08, 9.440558285415959E+07,
2460959.500000000, A.D. 2025-Oct-11 00:00:00.0000, -5.137757869632854E+08, 2.153858832441693E+08, 9.435058449752125E+07,
2460966.500000000, A.D. 2025-Oct-18 00:00:00.0000, -5.176259888641938E+08, 2.076070143042835E+08, 9.427017994480067E+07,
2460973.500000000, A.D. 2025-Oct-25 00:00:00.0000, -5.213372571489778E+08, 1.997724607181820E+08, 9.416447022839348E+07,
2460980.500000000, A.D. 2025-Nov-01 00:00:00.0000, -5.249090180982264E+08, 1.918844868500788E+08, 9.403356012483670E+07,
2460987.500000000, A.D. 2025-Nov-08 00:00:00.0000, -5.283407255328733E+08, 1.839453526030116E+08, 9.387755808825363E+07,
2460994.500000000, A.D. 2025-Nov-15 00:00:00.0000, -5.316318603105505E+08, 1.759573130666699E+08, 9.369657615626526E+07,
2461001.500000000, A.D. 2025-Nov-22 00:00:00.0000, -5.347819292550086E+08, 1.679226182168906E+08, 9.349072980930710E+07,
2461008.500000000, A.D. 2025-Nov-29 00:00:00.0000, -5.377904636722900E+08, 1.598435138018117E+08, 9.326013789003763E+07,
2461015.500000000, A.D. 2025-Dec-06 00:00:00.0000, -5.406570197317373E+08, 1.517222432787496E+08, 9.300492278052023E+07,
2461022.500000000, A.D. 2025-Dec-13 00:00:00.0000, -5.433811802789012E+08, 1.435610474320613E+08, 9.272521052196667E+07,
2461029.500000000, A.D. 2025-Dec-20 00:00:00.0000, -5.459625545865173E+08, 1.353621626957808E+08, 9.242113064004701E+07,
2461036.500000000, A.D. 2025-Dec-27 00:00:00.0000, -5.484007771161553E+08, 1.271278207719489E+08, 9.209281598563455E+07,
2461043.500000000, A.D. 2026-Jan-03 00:00:00.0000, -5.506955067497239E+08, 1.188602489285972E+08, 9.174040267438096E+07,
2461050.500000000, A.D. 2026-Jan-10 00:00:00.0000, -5.528464263814259E+08, 1.105616702987327E+08, 9.136403005963415E+07,
2461057.500000000, A.D. 2026-Jan-17 00:00:00.0000, -5.548532426375996E+08, 1.022343040893065E+08, 9.096384070993769E+07,
2461064.500000000, A.D. 2026-Jan-24 00:00:00.0000, -5.567156856463162E+08, 9.388036572334994E+07, 9.053998038585500E+07,
2461071.500000000, A.D. 2026-Jan-31 00:00:00.0000, -5.584335088331186E+08, 8.550206690837380E+07, 9.009259801340935E+07,
2461078.500000000, A.D. 2026-Feb-07 00:00:00.0000, -5.600064886812726E+08, 7.710161557421707E+07, 8.962184564387771E+07,
2461085.500000000, A.D. 2026-Feb-14 00:00:00.0000, -5.614344242033287E+08, 6.868121566560021E+07, 8.912787837553544E+07,
2461092.500000000, A.D. 2026-Feb-21 00:00:00.0000, -5.627171357361708E+08, 6.024306736687945E+07, 8.861085424898644E+07,
2461099.500000000, A.D. 2026-Feb-28 00:00:00.0000, -5.638544641440997E+08, 5.178936891260887E+07, 8.807093430982369E+07,
2461106.500000000, A.D. 2026-Mar-07 00:00:00.0000, -5.648462724887598E+08, 4.332231803376169E+07, 8.750828286813056E+07,
2461113.500000000, A.D. 2026-Mar-14 00:00:00.0000, -5.656924473906287E+08, 3.484411070708948E+07, 8.692306750974348E+07,
2461120.500000000, A.D. 2026-Mar-21 00:00:00.0000, -5.663928982983766E+08, 2.635694010582256E+07, 8.631545893252291E+07,
2461127.500000000, A.D. 2026-Mar-28 00:00:00.0000, -5.669475566744511E+08, 1.786299677966933E+07, 8.568563087583926E+07,
2461134.500000000, A.D. 2026-Apr-04 00:00:00.0000, -5.673563757006246E+08, 9.364469097502716E+06, 8.503376011980551E+07,
2461141.500000000, A.D. 2026-Apr-11 00:00:00.0000, -5.676193302299947E+08, 8.635435922105536E+05, 8.436002649996345E+07,
2461148.500000000, A.D. 2026-Apr-18 00:00:00.0000, -5.677364168263193E+08, -7.637594799345523E+06, 8.366461292253523E+07,
2461155.500000000, A.D. 2026-Apr-25 00:00:00.0000, -5.677076538447920E+08, -1.613676258690890E+07, 8.294770537749563E+07,
2461162.500000000, A.D. 2026-May-02 00:00:00.0000, -5.675330815234202E+08, -2.463177769790204E+07, 8.220949294447243E+07,
2461169.500000000, A.D. 2026-May-09 00:00:00.0000, -5.672127619602364E+08, -3.312045963549231E+07, 8.145016777484860E+07,
2461176.500000000, A.D. 2026-May-16 00:00:00.0000, -5.667467785981755E+08, -4.160062968549016E+07, 8.066992502686110E+07,
2461183.500000000, A.D. 2026-May-23 00:00:00.0000, -5.661352351654969E+08, -5.007011014986384E+07, 7.986896283254942E+07,
2461190.500000000, A.D. 2026-May-30 00:00:00.0000, -5.653782561500101E+08, -5.852672228762975E+07, 7.904748251326481E+07,
2461197.500000000, A.D. 2026-Jun-06 00:00:00.0000, -5.644759891249104E+08, -6.696828623697805E+07, 7.820568880530274E+07,
2461204.500000000, A.D. 2026-Jun-13 00:00:00.0000, -5.634286052606279E+08, -7.539262271925728E+07, 7.734378977560607E+07,
2461211.500000000, A.D. 2026-Jun-20 00:00:00.0000, -5.622362985226659E+08, -8.379755359814121E+07, 7.646199671220565E+07,
2461218.500000000, A.D. 2026-Jun-27 00:00:00.0000, -5.608992852524296E+08, -9.218090163419083E+07, 7.556052411681999E+07,
2461225.500000000, A.D. 2026-Jul-04 00:00:00.0000, -5.594178041306013E+08, -1.005404902106051E+08, 7.463958973584343E+07,
2461232.500000000, A.D. 2026-Jul-11 00:00:00.0000, -5.577921162692192E+08, -1.088741431629587E+08, 7.369941459536673E+07,
2461239.500000000, A.D. 2026-Jul-18 00:00:00.0000, -5.560225053401723E+08, -1.171796846879214E+08, 7.274022303364679E+07,
2461246.500000000, A.D. 2026-Jul-25 00:00:00.0000, -5.541092777162998E+08, -1.254549393287442E+08, 7.176224272889565E+07,
2461253.500000000, A.D. 2026-Aug-01 00:00:00.0000, -5.520527625776361E+08, -1.336977320858656E+08, 7.076570471395543E+07,
2461260.500000000, A.D. 2026-Aug-08 00:00:00.0000, -5.498533117683834E+08, -1.419058886885286E+08, 6.975084335512343E+07,
2461267.500000000, A.D. 2026-Aug-15 00:00:00.0000, -5.475112989897201E+08, -1.500772355769053E+08, 6.871789629374678E+07,
2461274.500000000, A.D. 2026-Aug-22 00:00:00.0000, -5.450271190892916E+08, -1.582095983734025E+08, 6.766710452004211E+07,
2461281.500000000, A.D. 2026-Aug-29 00:00:00.0000, -5.424011897363617E+08, -1.663008002162558E+08, 6.659871267677642E+07,
2461288.500000000, A.D. 2026-Sep-05 00:00:00.0000, -5.396339533496474E+08, -1.743486628240591E+08, 6.551296916276201E+07,
2461295.500000000, A.D. 2026-Sep-12 00:00:00.0000, -5.367258768233735E+08, -1.823510077954581E+08, 6.441012601502951E+07,
$$EOE